[{"OBJECT_NAME":"NEXTSAT-1","OBJECT_ID":"2018-099BF","EPOCH":"2026-03-09T16:24:07.497504","MEAN_MOTION":15.08057555,"ECCENTRICITY":0.001132,"INCLINATION":97.4203,"RA_OF_ASC_NODE":114.8574,"ARG_OF_PERICENTER":323.961,"MEAN_ANOMALY":36.0854,"EPHEMERIS_TYPE":0,"CLASSIFICATION_TYPE":"U","NORAD_CAT_ID":43811,"ELEMENT_SET_NO":999,"REV_AT_EPOCH":39688,"BSTAR":0.00029857014,"MEAN_MOTION_DOT":4.546e-5,"MEAN_MOTION_DDOT":0},{"OBJECT_NAME":"STARLINK-34848","OBJECT_ID":"2025-191Z","EPOCH":"2026-03-09T15:13:22.082304","MEAN_MOTION":15.05648129,"ECCENTRICITY":0.0003019,"INCLINATION":97.6015,"RA_OF_ASC_NODE":301.5112,"ARG_OF_PERICENTER":78.1384,"MEAN_ANOMALY":282.0182,"EPHEMERIS_TYPE":0,"CLASSIFICATION_TYPE":"U","NORAD_CAT_ID":65402,"ELEMENT_SET_NO":999,"REV_AT_EPOCH":3026,"BSTAR":0.00031739,"MEAN_MOTION_DOT":4.522e-5,"MEAN_MOTION_DDOT":0}]
