NEXTSAT-1               
1 43811U 18099BF  26068.68342010  .00004546  00000+0  29857-3 0  9992
2 43811  97.4203 114.8574 0011320 323.9610  36.0854 15.08057555396886
STARLINK-34848          
1 65402U 25191Z   26068.63428336  .00004522  00000+0  31739-3 0  9990
2 65402  97.6015 301.5112 0003019  78.1384 282.0182 15.05648129 30269
